TDRS 3                  
1 19548U 88091B   24366.80753604 -.00000282  00000+0  00000+0 0  9998
2 19548  13.0099 344.5569 0041517 339.5448  18.3551  1.00266289120045
HST                     
1 20580U 90037B   24366.58680556  .00013928  00000+0  58199-3 0  9995
2 20580  28.4687  98.4724 0002679  55.1645 304.9200 15.22099524707096
TDRS 5                  
1 21639U 91054B   24366.87634542 -.00000285  00000+0  00000+0 0  9994
2 21639  14.1362 357.6660 0006304 275.8804  80.2914  1.00265515122374
TDRS 6                  
1 22314U 93003B   24366.87947311 -.00000281  00000+0  00000+0 0  9998
2 22314  14.1689   0.9703 0007629 194.8181 175.6546  1.00267451117074
TDRS 7                  
1 23613U 95035B   24366.83718964 -.00000187  00000+0  00000+0 0  9999
2 23613  13.5986 351.8537 0021528  68.7155  66.4763  1.00273391107917
ISS (ZARYA)             
1 25544U 98067A   24366.81307813  .00027763  00000+0  48311-3 0  9996
2 25544  51.6382  56.2039 0006091  28.0496 332.0820 15.50544003489205
TERRA                   
1 25994U 99068A   25001.14756194  .00001770  00000+0  37517-3 0  9996
2 25994  98.0237  64.6172 0003555 100.0072 344.6739 14.60358122332055
TDRS 8                  
1 26388U 00034A   24366.78399140  .00000107  00000+0  00000+0 0  9992
2 26388  11.8452  35.6544 0007406 231.7944 307.8169  1.00272629 89846
TIMED                   
1 26998U 01055B   24366.89765397  .00004438  00000+0  43025-3 0  9995
2 26998  74.0689 225.1038 0002279 229.6067 130.4917 14.93004236251312
AQUA                    
1 27424U 02022A   25001.51163951  .00004293  00000+0  89225-3 0  9990
2 27424  98.3576 318.0557 0001146 122.0443 302.8287 14.60609689205653
TDRS 10                 
1 27566U 02055A   24366.78329635  .00000101  00000+0  00000+0 0  9992
2 27566   9.9751  43.8022 0006274 285.4222 242.3446  1.00276427 80891
SORCE                   
1 27651U 03004A   25001.47713039  .00012306  00000+0  10203-2 0  9999
2 27651  39.9929  44.4339 0020984 200.5979 159.3968 14.98373005191985
AURA                    
1 28376U 04026A   25001.13277867  .00004173  00000+0  88459-3 0  9998
2 28376  98.2761 310.9814 0001293  91.9878 268.1470 14.59716139 88587
SWIFT                   
1 28485U 04047A   25001.19152669  .00034858  00000+0  11720-2 0  9999
2 28485  20.5533 194.0012 0007311 341.8095  18.2082 15.29016583104563
THEMIS A                
1 30580U 07004A   24366.42864097 -.00000070  00000+0  00000+0 0  9994
2 30580   7.1941 247.4294 8421824 359.6655   0.5583  0.87838380 36599
THEMIS D                
1 30797U 07004D   24366.82117628 -.00000138  00000+0  00000+0 0  9994
2 30797   2.5823 247.3103 8406118   4.0809 113.7441  0.87839040 36398
THEMIS E                
1 30798U 07004E   25001.43029671 -.00000146  00000+0  00000+0 0  9998
2 30798   4.8762 273.8862 8394908 338.4821 319.4739  0.87836514 61232
FGRST (GLAST)           
1 33053U 08029A   24366.50068983  .00008805  00000+0  38771-3 0  9992
2 33053  25.5835 291.6051 0009640 178.2052 181.8521 15.19504102914819
TDRS 11                 
1 39070U 13004A   25001.06843597  .00000097  00000+0  00000+0 0  9991
2 39070   2.8753  18.4055 0001982  14.3122 278.4427  1.00269844 43658
TDRS 12                 
1 39504U 14004A   24366.88051568 -.00000251  00000+0  00000+0 0  9999
2 39504   3.5981   8.1784 0005461 256.6515 111.9448  1.00266478 38949
GPM-CORE                
1 39574U 14009C   25001.49527018  .00040102  00000+0  84844-3 0  9993
2 39574  64.9817 289.0207 0006272 258.5018 101.5419 15.44901585615701
MMS 1                   
1 40482U 15011A   24365.66667824 -.00001021  00000+0  00000+0 0  9994
2 40482  58.3902   0.5446 8916165 155.0609  94.3148  0.28521365  1369
MMS 2                   
1 40483U 15011B   24365.75001157 -.00001027  00000+0  00000+0 0  9992
2 40483  58.3926   0.5424 8916083 155.0629 101.3047  0.28520019  1365
MMS 3                   
1 40484U 15011C   24365.66667824 -.00001021  00000+0  00000+0 0  9996
2 40484  58.3918   0.5434 8916104 155.0616  93.0214  0.28520512  1369
MMS 4                   
1 40485U 15011D   24365.83334491 -.00001033  00000+0  00000+0 0  9990
2 40485  58.3936   0.5408 8915468 155.0625 100.2972  0.28519760  1368
TDRS 13                 
1 42915U 17047A   24366.88642355 -.00000075  00000+0  00000+0 0  9993
2 42915   3.5117 349.1645 0010542 118.9074 300.4544  1.00271248 27019
NOAA 20 (JPSS-1)        
1 43013U 17073A   25001.47319473  .00000368  00000+0  19541-3 0  9994
2 43013  98.7274 302.2284 0001782  47.7712 312.3616 14.19530063369032
